start=new Date('2022-01-15T00:00:00.000Z').valueOf();
sats=[{"ELEMENT_SET_NO":"999","ECCENTRICITY":"0.00016600","RA_OF_ASC_NODE":"123.0995","NORAD_CAT_ID":"48110","MEAN_ANOMALY":"263.7793","FILE":"3273247","REV_AT_EPOCH":"4420","EPHEMERIS_TYPE":"0","OBJECT_NAME":"STARLINK-2447","APOAPSIS":"548.386","OBJECT_TYPE":"PAYLOAD","GP_ID":"193878438","TLE_LINE1":"1 48110U 21027U   22014.60374679  .00000498  00000-0  52365-4 0  9993","TIME_SYSTEM":"UTC","PERIOD":"95.593","REF_FRAME":"TEME","MEAN_MOTION":"15.06392557","COUNTRY_CODE":"US","BSTAR":"0.00005236500000","PERIAPSIS":"546.087","TLE_LINE2":"2 48110  53.0560 123.0995 0001660  96.3385 263.7793 15.06392557 44201","RCS_SIZE":"LARGE","INCLINATION":"53.0560","SITE":"AFETR","ARG_OF_PERICENTER":"96.3385","MEAN_MOTION_DOT":"0.00000498","CENTER_NAME":"EARTH","OBJECT_ID":"2021-027U","LAUNCH_DATE":"2021-04-07","MEAN_ELEMENT_THEORY":"SGP4","DECAY_DATE":null,"MEAN_MOTION_DDOT":"0.0000000000000","SEMIMAJOR_AXIS":"6925.371","EPOCH":"2022-01-14T14:29:23.722656","CLASSIFICATION_TYPE":"U"},{"MEAN_MOTION_DDOT":"0.0000000000000","SEMIMAJOR_AXIS":"6925.326","EPOCH":"2022-01-14T17:33:48.142944","CLASSIFICATION_TYPE":"U","LAUNCH_DATE":"2021-04-07","MEAN_ELEMENT_THEORY":"SGP4","DECAY_DATE":null,"MEAN_MOTION_DOT":"-0.00000855","ARG_OF_PERICENTER":"101.7667","CENTER_NAME":"EARTH","OBJECT_ID":"2021-027V","RCS_SIZE":"LARGE","INCLINATION":"53.0550","SITE":"AFETR","PERIAPSIS":"546.199","TLE_LINE2":"2 48111  53.0550 122.5326 0001432 101.7667 258.3483 15.06407335 44223","COUNTRY_CODE":"US","BSTAR":"-0.00003849300000","REF_FRAME":"TEME","MEAN_MOTION":"15.06407335","PERIOD":"95.592","TLE_LINE1":"1 48111U 21027V   22014.73180721 -.00000855  00000-0 -38493-4 0  9996","GP_ID":"193879689","TIME_SYSTEM":"UTC","OBJECT_TYPE":"PAYLOAD","APOAPSIS":"548.183","OBJECT_NAME":"STARLINK-2448","EPHEMERIS_TYPE":"0","NORAD_CAT_ID":"48111","RA_OF_ASC_NODE":"122.5326","FILE":"3273247","REV_AT_EPOCH":"4422","MEAN_ANOMALY":"258.3483","ECCENTRICITY":"0.00014320","ELEMENT_SET_NO":"999"},{"ECCENTRICITY":"0.00017600","ELEMENT_SET_NO":"999","EPHEMERIS_TYPE":"0","RA_OF_ASC_NODE":"137.3480","NORAD_CAT_ID":"48112","MEAN_ANOMALY":"258.8750","FILE":"3273247","REV_AT_EPOCH":"4401","APOAPSIS":"548.457","OBJECT_TYPE":"PAYLOAD","OBJECT_NAME":"STARLINK-2449","PERIOD":"95.593","TLE_LINE1":"1 48112U 21027W   22014.77281741  .00000166  00000-0  30038-4 0  9995","GP_ID":"193879940","TIME_SYSTEM":"UTC","BSTAR":"0.00003003800000","COUNTRY_CODE":"US","REF_FRAME":"TEME","MEAN_MOTION":"15.06392027","RCS_SIZE":"LARGE","INCLINATION":"53.0540","SITE":"AFETR","PERIAPSIS":"546.019","TLE_LINE2":"2 48112  53.0540 137.3480 0001760 101.2436 258.8750 15.06392027 44011","LAUNCH_DATE":"2021-04-07","MEAN_ELEMENT_THEORY":"SGP4","DECAY_DATE":null,"ARG_OF_PERICENTER":"101.2436","MEAN_MOTION_DOT":"0.00000166","CENTER_NAME":"EARTH","OBJECT_ID":"2021-027W","MEAN_MOTION_DDOT":"0.0000000000000","SEMIMAJOR_AXIS":"6925.373","EPOCH":"2022-01-14T18:32:51.424224","CLASSIFICATION_TYPE":"U"},{"PERIOD":"95.592","TIME_SYSTEM":"UTC","GP_ID":"193847070","TLE_LINE1":"1 48113U 21027X   22014.59175779  .00000767  00000-0  70365-4 0  9993","OBJECT_TYPE":"PAYLOAD","APOAPSIS":"548.506","OBJECT_NAME":"STARLINK-2450","EPHEMERIS_TYPE":"0","MEAN_ANOMALY":"262.4087","FILE":"3272874","REV_AT_EPOCH":"4404","NORAD_CAT_ID":"48113","RA_OF_ASC_NODE":"133.1615","ECCENTRICITY":"0.00018970","ELEMENT_SET_NO":"999","EPOCH":"2022-01-14T14:12:07.873056","CLASSIFICATION_TYPE":"U","SEMIMAJOR_AXIS":"6925.327","MEAN_MOTION_DDOT":"0.0000000000000","MEAN_ELEMENT_THEORY":"SGP4","DECAY_DATE":null,"LAUNCH_DATE":"2021-04-07","OBJECT_ID":"2021-027X","MEAN_MOTION_DOT":"0.00000767","ARG_OF_PERICENTER":"97.7117","CENTER_NAME":"EARTH","SITE":"AFETR","INCLINATION":"53.0557","RCS_SIZE":"LARGE","TLE_LINE2":"2 48113  53.0557 133.1615 0001897  97.7117 262.4087 15.06406990 44042","PERIAPSIS":"545.878","COUNTRY_CODE":"US","BSTAR":"0.00007036500000","MEAN_MOTION":"15.06406990","REF_FRAME":"TEME"},{"EPOCH":"2022-01-14T13:15:42.531840","CLASSIFICATION_TYPE":"U","SEMIMAJOR_AXIS":"6925.328","MEAN_MOTION_DDOT":"0.0000000000000","MEAN_ELEMENT_THEORY":"SGP4","DECAY_DATE":null,"LAUNCH_DATE":"2021-04-07","OBJECT_ID":"2021-027Y","ARG_OF_PERICENTER":"95.1943","MEAN_MOTION_DOT":"0.00001606","CENTER_NAME":"EARTH","SITE":"AFETR","INCLINATION":"53.0563","RCS_SIZE":"LARGE","TLE_LINE2":"2 48114  53.0563 128.3463 0001769  95.1943 264.9248 15.06406613 44121","PERIAPSIS":"545.968","COUNTRY_CODE":"US","BSTAR":"0.00012665000000","MEAN_MOTION":"15.06406613","REF_FRAME":"TEME","PERIOD":"95.592","TIME_SYSTEM":"UTC","GP_ID":"193847824","TLE_LINE1":"1 48114U 21027Y   22014.55257560  .00001606  00000-0  12665-3 0  9990","APOAPSIS":"548.418","OBJECT_TYPE":"PAYLOAD","OBJECT_NAME":"STARLINK-2451","EPHEMERIS_TYPE":"0","MEAN_ANOMALY":"264.9248","FILE":"3272874","REV_AT_EPOCH":"4412","RA_OF_ASC_NODE":"128.3463","NORAD_CAT_ID":"48114","ECCENTRICITY":"0.00017690","ELEMENT_SET_NO":"999"},{"EPOCH":"2022-01-14T18:42:48.231360","CLASSIFICATION_TYPE":"U","MEAN_MOTION_DDOT":"0.0000000000000","SEMIMAJOR_AXIS":"6925.346","MEAN_ELEMENT_THEORY":"SGP4","DECAY_DATE":null,"LAUNCH_DATE":"2021-04-07","OBJECT_ID":"2021-027Z","ARG_OF_PERICENTER":"105.8964","MEAN_MOTION_DOT":"0.00000891","CENTER_NAME":"EARTH","SITE":"AFETR","RCS_SIZE":"LARGE","INCLINATION":"53.0555","TLE_LINE2":"2 48115  53.0555 122.3113 0001548 105.8964 254.2196 15.06400696 44226","PERIAPSIS":"546.139","BSTAR":"0.00007873300000","COUNTRY_CODE":"US","MEAN_MOTION":"15.06400696","REF_FRAME":"TEME","PERIOD":"95.592","TIME_SYSTEM":"UTC","TLE_LINE1":"1 48115U 21027Z   22014.77972490  .00000891  00000-0  78733-4 0  9995","GP_ID":"193879190","OBJECT_TYPE":"PAYLOAD","APOAPSIS":"548.283","OBJECT_NAME":"STARLINK-2452","EPHEMERIS_TYPE":"0","FILE":"3273247","MEAN_ANOMALY":"254.2196","REV_AT_EPOCH":"4422","NORAD_CAT_ID":"48115","RA_OF_ASC_NODE":"122.3113","ECCENTRICITY":"0.00015480","ELEMENT_SET_NO":"999"},{"GP_ID":"193879441","TLE_LINE1":"1 48116U 21027AA  22014.78712279  .00000866  00000-0  77041-4 0  9997","TIME_SYSTEM":"UTC","PERIOD":"95.593","OBJECT_NAME":"STARLINK-2454","OBJECT_TYPE":"PAYLOAD","APOAPSIS":"548.384","RA_OF_ASC_NODE":"132.2823","NORAD_CAT_ID":"48116","FILE":"3273247","MEAN_ANOMALY":"267.8490","REV_AT_EPOCH":"4408","EPHEMERIS_TYPE":"0","ELEMENT_SET_NO":"999","ECCENTRICITY":"0.00016620","SEMIMAJOR_AXIS":"6925.368","MEAN_MOTION_DDOT":"0.0000000000000","CLASSIFICATION_TYPE":"U","EPOCH":"2022-01-14T18:53:27.409056","CENTER_NAME":"EARTH","ARG_OF_PERICENTER":"92.2689","MEAN_MOTION_DOT":"0.00000866","OBJECT_ID":"2021-027AA","LAUNCH_DATE":"2021-04-07","DECAY_DATE":null,"MEAN_ELEMENT_THEORY":"SGP4","PERIAPSIS":"546.082","TLE_LINE2":"2 48116  53.0524 132.2823 0001662  92.2689 267.8490 15.06393814 44085","INCLINATION":"53.0524","RCS_SIZE":"LARGE","SITE":"AFETR","REF_FRAME":"TEME","MEAN_MOTION":"15.06393814","BSTAR":"0.00007704100000","COUNTRY_CODE":"US"},{"EPHEMERIS_TYPE":"0","FILE":"3273247","MEAN_ANOMALY":"261.8588","REV_AT_EPOCH":"4436","NORAD_CAT_ID":"48117","RA_OF_ASC_NODE":"112.3996","ECCENTRICITY":"0.00014100","ELEMENT_SET_NO":"999","PERIOD":"95.593","TIME_SYSTEM":"UTC","TLE_LINE1":"1 48117U 21027AB  22014.75947565  .00001038  00000-0  88568-4 0  9991","GP_ID":"193878189","APOAPSIS":"548.212","OBJECT_TYPE":"PAYLOAD","OBJECT_NAME":"STARLINK-2455","SITE":"AFETR","RCS_SIZE":"LARGE","INCLINATION":"53.0557","TLE_LINE2":"2 48117  53.0557 112.3996 0001410  98.2561 261.8588 15.06392975 44368","PERIAPSIS":"546.259","BSTAR":"0.00008856800000","COUNTRY_CODE":"US","MEAN_MOTION":"15.06392975","REF_FRAME":"TEME","CLASSIFICATION_TYPE":"U","EPOCH":"2022-01-14T18:13:38.696160","SEMIMAJOR_AXIS":"6925.370","MEAN_MOTION_DDOT":"0.0000000000000","DECAY_DATE":null,"MEAN_ELEMENT_THEORY":"SGP4","LAUNCH_DATE":"2021-04-07","OBJECT_ID":"2021-027AB","CENTER_NAME":"EARTH","MEAN_MOTION_DOT":"0.00001038","ARG_OF_PERICENTER":"98.2561"},{"EPOCH":"2022-01-14T16:54:01.687680","CLASSIFICATION_TYPE":"U","SEMIMAJOR_AXIS":"6925.376","MEAN_MOTION_DDOT":"0.0000000000000","OBJECT_ID":"2021-027AC","MEAN_MOTION_DOT":"0.00000423","ARG_OF_PERICENTER":"92.5357","CENTER_NAME":"EARTH","MEAN_ELEMENT_THEORY":"SGP4","DECAY_DATE":null,"LAUNCH_DATE":"2021-04-07","TLE_LINE2":"2 48118  53.0553 112.6435 0001190  92.5357 267.5768 15.06391166 44354","PERIAPSIS":"546.417","SITE":"AFETR","RCS_SIZE":"LARGE","INCLINATION":"53.0553","MEAN_MOTION":"15.06391166","REF_FRAME":"TEME","COUNTRY_CODE":"US","BSTAR":"0.00004726700000","TIME_SYSTEM":"UTC","TLE_LINE1":"1 48118U 21027AC  22014.70418620  .00000423  00000-0  47267-4 0  9990","GP_ID":"193878439","PERIOD":"95.593","OBJECT_NAME":"STARLINK-2458","OBJECT_TYPE":"PAYLOAD","APOAPSIS":"548.065","FILE":"3273247","MEAN_ANOMALY":"267.5768","REV_AT_EPOCH":"4435","RA_OF_ASC_NODE":"112.6435","NORAD_CAT_ID":"48118","EPHEMERIS_TYPE":"0","ELEMENT_SET_NO":"999","ECCENTRICITY":"0.00011900"},{"NORAD_CAT_ID":"48119","RA_OF_ASC_NODE":"112.6577","FILE":"3273247","REV_AT_EPOCH":"4434","MEAN_ANOMALY":"266.7994","EPHEMERIS_TYPE":"0","ELEMENT_SET_NO":"999","ECCENTRICITY":"0.00012600","GP_ID":"193879690","TLE_LINE1":"1 48119U 21027AD  22014.70050026 -.00000929  00000-0 -43490-4 0  9990","TIME_SYSTEM":"UTC","PERIOD":"95.593","OBJECT_NAME":"STARLINK-2459","OBJECT_TYPE":"PAYLOAD","APOAPSIS":"548.105","PERIAPSIS":"546.360","TLE_LINE2":"2 48119  53.0552 112.6577 0001260  93.3139 266.7994 15.06393762 44341","INCLINATION":"53.0552","RCS_SIZE":"LARGE","SITE":"AFETR","REF_FRAME":"TEME","MEAN_MOTION":"15.06393762","BSTAR":"-0.00004349000000","COUNTRY_CODE":"US","MEAN_MOTION_DDOT":"0.0000000000000","SEMIMAJOR_AXIS":"6925.368","EPOCH":"2022-01-14T16:48:43.222464","CLASSIFICATION_TYPE":"U","MEAN_MOTION_DOT":"-0.00000929","ARG_OF_PERICENTER":"93.3139","CENTER_NAME":"EARTH","OBJECT_ID":"2021-027AD","LAUNCH_DATE":"2021-04-07","MEAN_ELEMENT_THEORY":"SGP4","DECAY_DATE":null}];
